[{"ORDINAL":"5","COMMENT":"GENERATED VIA SPACETRACK.ORG API","ORIGINATOR":"JSPOC","NORAD_CAT_ID":"40078","OBJECT_NAME":"FREGAT DEB","OBJECT_TYPE":"DEBRIS","CLASSIFICATION_TYPE":"U","INTLDES":"14037K","EPOCH":"2014-11-24 12:01:44","EPOCH_MICROSECONDS":"564735","MEAN_MOTION":"14.51523507","ECCENTRICITY":"0.0138714","INCLINATION":"98.3646","RA_OF_ASC_NODE":"19.5797","ARG_OF_PERICENTER":"157.3454","MEAN_ANOMALY":"203.3951","EPHEMERIS_TYPE":"0","ELEMENT_SET_NO":"148","REV_AT_EPOCH":"2013","BSTAR":"0.00025743","MEAN_MOTION_DOT":"1.115e-05","MEAN_MOTION_DDOT":"0","FILE":"1783189","TLE_LINE0":"0 FREGAT DEB","TLE_LINE1":"1 40078U 14037K   14328.50121024  .00001115  00000-0  25743-3 0  1485","TLE_LINE2":"2 40078 098.3646 019.5797 0138714 157.3454 203.3951 14.51523507 20130","OBJECT_ID":"2014-037K","OBJECT_NUMBER":"40078"},{"ORDINAL":"5","COMMENT":"GENERATED VIA SPACETRACK.ORG API","ORIGINATOR":"JSPOC","NORAD_CAT_ID":"39524","OBJECT_NAME":"BREEZE-M DEB (TANK)","OBJECT_TYPE":"DEBRIS","CLASSIFICATION_TYPE":"U","INTLDES":"14007C","EPOCH":"2014-11-24 10:05:04","EPOCH_MICROSECONDS":"144704","MEAN_MOTION":"3.71416234","ECCENTRICITY":"0.6180458","INCLINATION":"49.3928","RA_OF_ASC_NODE":"333.8769","ARG_OF_PERICENTER":"113.6175","MEAN_ANOMALY":"320.7727","EPHEMERIS_TYPE":"0","ELEMENT_SET_NO":"174","REV_AT_EPOCH":"1046","BSTAR":"0.00056662","MEAN_MOTION_DOT":"6.43e-06","MEAN_MOTION_DDOT":"0","FILE":"1783190","TLE_LINE0":"0 BREEZE-M DEB (TANK)","TLE_LINE1":"1 39524U 14007C   14328.42018686  .00000643  00000-0  56662-3 0  1744","TLE_LINE2":"2 39524 049.3928 333.8769 6180458 113.6175 320.7727 03.71416234 10465","OBJECT_ID":"2014-007C","OBJECT_NUMBER":"39524"},{"ORDINAL":"5","COMMENT":"GENERATED VIA SPACETRACK.ORG API","ORIGINATOR":"JSPOC","NORAD_CAT_ID":"40288","OBJECT_NAME":"CZ-2C DEB","OBJECT_TYPE":"DEBRIS","CLASSIFICATION_TYPE":"U","INTLDES":"14066C","EPOCH":"2014-11-24 04:54:23","EPOCH_MICROSECONDS":"336927","MEAN_MOTION":"14.18316321","ECCENTRICITY":"0.0193855","INCLINATION":"97.972","RA_OF_ASC_NODE":"79.6951","ARG_OF_PERICENTER":"89.2207","MEAN_ANOMALY":"273.1178","EPHEMERIS_TYPE":"0","ELEMENT_SET_NO":"37","REV_AT_EPOCH":"395","BSTAR":"0.00074866","MEAN_MOTION_DOT":"1.821e-05","MEAN_MOTION_DDOT":"0","FILE":"1783070","TLE_LINE0":"0 CZ-2C DEB","TLE_LINE1":"1 40288U 14066C   14328.20443677  .00001821  00000-0  74866-3 0   379","TLE_LINE2":"2 40288 097.9720 079.6951 0193855 089.2207 273.1178 14.18316321  3950","OBJECT_ID":"2014-066C","OBJECT_NUMBER":"40288"},{"ORDINAL":"1","COMMENT":"GENERATED VIA SPACETRACK.ORG API","ORIGINATOR":"JSPOC","NORAD_CAT_ID":"40150","OBJECT_NAME":"FOTON M4 DEB","OBJECT_TYPE":"DEBRIS","CLASSIFICATION_TYPE":"U","INTLDES":"14041C","EPOCH":"2014-11-14 19:30:55","EPOCH_MICROSECONDS":"793663","MEAN_MOTION":"16.28883801","ECCENTRICITY":"0.0046397","INCLINATION":"64.7937","RA_OF_ASC_NODE":"246.3128","ARG_OF_PERICENTER":"324.2623","MEAN_ANOMALY":"37.2524","EPHEMERIS_TYPE":"0","ELEMENT_SET_NO":"153","REV_AT_EPOCH":"994","BSTAR":"0.0050563","MEAN_MOTION_DOT":"0.28892813","MEAN_MOTION_DDOT":"8.1921e-06","FILE":"1779065","TLE_LINE0":"0 FOTON M4 DEB","TLE_LINE1":"1 40150U 14041C   14318.81314576  .28892813  81921-5  50563-2 0  1532","TLE_LINE2":"2 40150 064.7937 246.3128 0046397 324.2623 037.2524 16.28883801  9945","OBJECT_ID":"2014-041C","OBJECT_NUMBER":"40150"},{"ORDINAL":"2","COMMENT":"GENERATED VIA SPACETRACK.ORG API","ORIGINATOR":"JSPOC","NORAD_CAT_ID":"40150","OBJECT_NAME":"FOTON M4 DEB","OBJECT_TYPE":"DEBRIS","CLASSIFICATION_TYPE":"U","INTLDES":"14041C","EPOCH":"2014-11-14 16:33:22","EPOCH_MICROSECONDS":"480992","MEAN_MOTION":"16.19964098","ECCENTRICITY":"0.0067061","INCLINATION":"64.8095","RA_OF_ASC_NODE":"246.7333","ARG_OF_PERICENTER":"338.1665","MEAN_ANOMALY":"21.986","EPHEMERIS_TYPE":"0","ELEMENT_SET_NO":"152","REV_AT_EPOCH":"992","BSTAR":"0.0038979","MEAN_MOTION_DOT":"0.12346682","MEAN_MOTION_DDOT":"8.2154e-06","FILE":"1778232","TLE_LINE0":"0 FOTON M4 DEB","TLE_LINE1":"1 40150U 14041C   14318.68984353  .12346682  82154-5  38979-2 0  1529","TLE_LINE2":"2 40150 064.8095 246.7333 0067061 338.1665 021.9860 16.19964098  9923","OBJECT_ID":"2014-041C","OBJECT_NUMBER":"40150"},{"ORDINAL":"3","COMMENT":"GENERATED VIA SPACETRACK.ORG API","ORIGINATOR":"JSPOC","NORAD_CAT_ID":"40150","OBJECT_NAME":"FOTON M4 DEB","OBJECT_TYPE":"DEBRIS","CLASSIFICATION_TYPE":"U","INTLDES":"14041C","EPOCH":"2014-11-14 15:07:58","EPOCH_MICROSECONDS":"249056","MEAN_MOTION":"16.17628605","ECCENTRICITY":"0.0058127","INCLINATION":"64.762","RA_OF_ASC_NODE":"246.9866","ARG_OF_PERICENTER":"332.3616","MEAN_ANOMALY":"41.9787","EPHEMERIS_TYPE":"0","ELEMENT_SET_NO":"151","REV_AT_EPOCH":"991","BSTAR":"0.004315","MEAN_MOTION_DOT":"0.09811215","MEAN_MOTION_DDOT":"7.8657e-06","FILE":"1778083","TLE_LINE0":"0 FOTON M4 DEB","TLE_LINE1":"1 40150U 14041C   14318.63053529  .09811215  78657-5  43150-2 0  1510","TLE_LINE2":"2 40150 064.7620 246.9866 0058127 332.3616 041.9787 16.17628605  9912","OBJECT_ID":"2014-041C","OBJECT_NUMBER":"40150"},{"ORDINAL":"4","COMMENT":"GENERATED VIA SPACETRACK.ORG API","ORIGINATOR":"JSPOC","NORAD_CAT_ID":"40150","OBJECT_NAME":"FOTON M4 DEB","OBJECT_TYPE":"DEBRIS","CLASSIFICATION_TYPE":"U","INTLDES":"14041C","EPOCH":"2014-11-13 09:12:34","EPOCH_MICROSECONDS":"757567","MEAN_MOTION":"16.00627764","ECCENTRICITY":"0.0086469","INCLINATION":"64.7556","RA_OF_ASC_NODE":"251.5932","ARG_OF_PERICENTER":"333.0196","MEAN_ANOMALY":"26.6655","EPHEMERIS_TYPE":"0","ELEMENT_SET_NO":"150","REV_AT_EPOCH":"971","BSTAR":"0.0034408","MEAN_MOTION_DOT":"0.02882732","MEAN_MOTION_DDOT":"7.197e-06","FILE":"1777451","TLE_LINE0":"0 FOTON M4 DEB","TLE_LINE1":"1 40150U 14041C   14317.38373562  .02882732  71970-5  34408-2 0  1504","TLE_LINE2":"2 40150 064.7556 251.5932 0086469 333.0196 026.6655 16.00627764  9716","OBJECT_ID":"2014-041C","OBJECT_NUMBER":"40150"},{"ORDINAL":"5","COMMENT":"GENERATED VIA SPACETRACK.ORG API","ORIGINATOR":"JSPOC","NORAD_CAT_ID":"40150","OBJECT_NAME":"FOTON M4 DEB","OBJECT_TYPE":"DEBRIS","CLASSIFICATION_TYPE":"U","INTLDES":"14041C","EPOCH":"2014-11-13 09:12:34","EPOCH_MICROSECONDS":"757567","MEAN_MOTION":"16.00627764","ECCENTRICITY":"0.0086469","INCLINATION":"64.7556","RA_OF_ASC_NODE":"251.5932","ARG_OF_PERICENTER":"333.0196","MEAN_ANOMALY":"26.6655","EPHEMERIS_TYPE":"0","ELEMENT_SET_NO":"149","REV_AT_EPOCH":"971","BSTAR":"0.0034408","MEAN_MOTION_DOT":"0.02882732","MEAN_MOTION_DDOT":"7.197e-06","FILE":"1777415","TLE_LINE0":"0 FOTON M4 DEB","TLE_LINE1":"1 40150U 14041C   14317.38373562  .02882732  71970-5  34408-2 0  1492","TLE_LINE2":"2 40150 064.7556 251.5932 0086469 333.0196 026.6655 16.00627764  9716","OBJECT_ID":"2014-041C","OBJECT_NUMBER":"40150"},{"ORDINAL":"1","COMMENT":"GENERATED VIA SPACETRACK.ORG API","ORIGINATOR":"JSPOC","NORAD_CAT_ID":"40211","OBJECT_NAME":"DRAGON CRS-4 DEB","OBJECT_TYPE":"DEBRIS","CLASSIFICATION_TYPE":"U","INTLDES":"14056B","EPOCH":"2014-09-23 15:59:48","EPOCH_MICROSECONDS":"515135","MEAN_MOTION":"16.26236506","ECCENTRICITY":"0.0047004","INCLINATION":"51.627","RA_OF_ASC_NODE":"330.8712","ARG_OF_PERICENTER":"64.7855","MEAN_ANOMALY":"306.0156","EPHEMERIS_TYPE":"0","ELEMENT_SET_NO":"14","REV_AT_EPOCH":"38","BSTAR":"0.0023033","MEAN_MOTION_DOT":"0.10519245","MEAN_MOTION_DDOT":"1.2299e-05","FILE":"1753653","TLE_LINE0":"0 DRAGON CRS-4 DEB","TLE_LINE1":"1 40211U 14056B   14266.66653374  .10519245  12299-4  23033-2 0   148","TLE_LINE2":"2 40211 051.6270 330.8712 0047004 064.7855 306.0156 16.26236506   384","OBJECT_ID":"2014-056B","OBJECT_NUMBER":"40211"},{"ORDINAL":"1","COMMENT":"GENERATED VIA SPACETRACK.ORG API","ORIGINATOR":"JSPOC","NORAD_CAT_ID":"40212","OBJECT_NAME":"DRAGON CRS-4 DEB","OBJECT_TYPE":"DEBRIS","CLASSIFICATION_TYPE":"U","INTLDES":"14056C","EPOCH":"2014-09-23 15:59:48","EPOCH_MICROSECONDS":"515135","MEAN_MOTION":"16.27005176","ECCENTRICITY":"0.0044601","INCLINATION":"51.6719","RA_OF_ASC_NODE":"330.879","ARG_OF_PERICENTER":"54.4427","MEAN_ANOMALY":"311.0893","EPHEMERIS_TYPE":"0","ELEMENT_SET_NO":"12","REV_AT_EPOCH":"39","BSTAR":"0.0028247","MEAN_MOTION_DOT":"0.13501754","MEAN_MOTION_DDOT":"1.2468e-05","FILE":"1753691","TLE_LINE0":"0 DRAGON CRS-4 DEB","TLE_LINE1":"1 40212U 14056C   14266.66653374  .13501754  12468-4  28247-2 0   126","TLE_LINE2":"2 40212 051.6719 330.8790 0044601 054.4427 311.0893 16.27005176   393","OBJECT_ID":"2014-056C","OBJECT_NUMBER":"40212"},{"ORDINAL":"3","COMMENT":"GENERATED VIA SPACETRACK.ORG API","ORIGINATOR":"JSPOC","NORAD_CAT_ID":"40211","OBJECT_NAME":"DRAGON CRS-4 DEB","OBJECT_TYPE":"DEBRIS","CLASSIFICATION_TYPE":"U","INTLDES":"14056B","EPOCH":"2014-09-23 05:37:54","EPOCH_MICROSECONDS":"986015","MEAN_MOTION":"16.16003506","ECCENTRICITY":"0.0072643","INCLINATION":"51.6542","RA_OF_ASC_NODE":"333.3762","ARG_OF_PERICENTER":"61.8607","MEAN_ANOMALY":"300.8257","EPHEMERIS_TYPE":"0","ELEMENT_SET_NO":"11","REV_AT_EPOCH":"32","BSTAR":"0.0024991","MEAN_MOTION_DOT":"0.06163278","MEAN_MOTION_DDOT":"1.1956e-05","FILE":"1751143","TLE_LINE0":"0 DRAGON CRS-4 DEB","TLE_LINE1":"1 40211U 14056B   14266.23466419  .06163278  11956-4  24991-2 0   119","TLE_LINE2":"2 40211 051.6542 333.3762 0072643 061.8607 300.8257 16.16003506   328","OBJECT_ID":"2014-056B","OBJECT_NUMBER":"40211"}]